ERS-1                   
1 21574U 91050A   26086.77011925  .00000297  00000+0  10945-3 0  9997
2 21574  98.7867 105.4584 0032638 147.0580 213.2650 14.39462526818334
ARIANE 40 R/B           
1 21610U 91050F   26086.84740155  .00000288  00000+0  98684-4 0  9997
2 21610  98.1975 138.3992 0003602  40.1291 320.0165 14.42906365821619
INTERCOSMOS 25          
1 21819U 91086A   26086.81813050  .00001507  00000+0  28854-3 0  9995
2 21819  82.6016 299.0489 1486563  77.8733 298.4445 12.12059081498887
SL-8 R/B                
1 21876U 92008B   26086.83840900  .00000032  00000+0  17260-4 0  9991
2 21876  82.9232 254.2737 0035947  84.3910  26.5510 13.75969593711910
SL-8 R/B                
1 21938U 92020B   26086.67003542  .00000033  00000+0  18235-4 0  9993
2 21938  82.9306 140.4118 0027734 246.2308 230.4762 13.75550507703608
USA 81                  
1 21949U 92023A   26086.82177587  .00000171  00000+0  56068-4 0  9995
2 21949  85.0049 120.9773 0001822  68.0453 292.0934 14.32373634 97383
COSMOS 2219             
1 22219U 92076A   26086.84214619 -.00000244  00000+0 -10320-3 0  9997
2 22219  71.0625 340.1253 0017961 180.5059 179.6049 14.14091148720940
SL-16 R/B               
1 22220U 92076B   26086.64879631 -.00000067  00000+0 -93498-5 0  9990
2 22220  71.0000 150.5463 0010668  62.7327  99.9266 14.16863988724378
COSMOS 2221             
1 22236U 92080A   26086.82769600  .00002444  00000+0  21372-3 0  9995
2 22236  82.5007 261.7013 0015437 128.5239 231.7369 14.96273260783503
SL-16 R/B               
1 22285U 92093B   26086.83104666  .00000227  00000+0  14081-3 0  9995
2 22285  71.0231 326.1850 0006467 276.0364  84.0022 14.15454031715727
COSMOS 2228             
1 22286U 92094A   26086.83193670  .00002753  00000+0  23481-3 0  9990
2 22286  82.5183 219.9392 0016792 238.4603 121.4981 14.97280097778774
SL-16 R/B               
1 22566U 93016B   26086.59055823 -.00000081  00000+0 -16982-4 0  9999
2 22566  71.0078 177.5868 0012336 291.0065  68.9738 14.15305364704707
